{
  "type": "FeatureCollection",
  "features": [
    {
      "type": "Feature",
      "properties": {
        "norad_id": 29268,
        "name": "ARIRANG-2 (KOMPSAT-2)",
        "group": "resource",
        "lat": -20.0340182284985,
        "lon": -9.87366252998317,
        "alt_km": 688.2898339293861,
        "timestamp": "2025-12-10T09:57:44.360841+00:00",
        "meta_object_name": "ARIRANG-2 (KOMPSAT-2)",
        "meta_object_id": "2006-031A",
        "meta_epoch": "2025-12-10T04:44:03.123168",
        "meta_mean_motion": 14.64489381,
        "meta_eccentricity": 0.0013642,
        "meta_inclination": 97.826,
        "meta_ra_of_asc_node": 172.7939,
        "meta_arg_of_pericenter": 317.8971,
        "meta_mean_anomaly": 174.5676,
        "meta_ephemeris_type": 0,
        "meta_classification_type": "U",
        "meta_norad_cat_id": 29268,
        "meta_element_set_no": 999,
        "meta_rev_at_epoch": 3381,
        "meta_bstar": 8.9727e-05,
        "meta_mean_motion_dot": 4.31e-06,
        "meta_mean_motion_ddot": 0,
        "tle_line1": "1 29268U 06031A   25344.19725837  .00000431  00000+0  89727-4 0  9991",
        "tle_line2": "2 29268  97.8260 172.7939 0013642 317.8971 174.5676 14.64489381 33810"
      },
      "geometry": {
        "type": "Point",
        "coordinates": [
          -9.87366252998317,
          -20.0340182284985
        ]
      }
    },
    {
      "type": "Feature",
      "properties": {
        "norad_id": 29709,
        "name": "LAPAN-TUBSAT",
        "group": "resource",
        "lat": -41.88572972754106,
        "lon": -18.114684636349367,
        "alt_km": 623.3446505388829,
        "timestamp": "2025-12-10T09:57:44.360851+00:00",
        "meta_object_name": "LAPAN-TUBSAT",
        "meta_object_id": "2007-001A",
        "meta_epoch": "2025-12-10T03:41:14.218656",
        "meta_mean_motion": 14.85665726,
        "meta_eccentricity": 0.0013723,
        "meta_inclination": 98.1257,
        "meta_ra_of_asc_node": 334.2569,
        "meta_arg_of_pericenter": 81.6564,
        "meta_mean_anomaly": 278.6205,
        "meta_ephemeris_type": 0,
        "meta_classification_type": "U",
        "meta_norad_cat_id": 29709,
        "meta_element_set_no": 999,
        "meta_rev_at_epoch": 2308,
        "meta_bstar": 0.00014906,
        "meta_mean_motion_dot": 1.236e-05,
        "meta_mean_motion_ddot": 0,
        "tle_line1": "1 29709U 07001A   25344.15363679  .00001236  00000+0  14906-3 0  9997",
        "tle_line2": "2 29709  98.1257 334.2569 0013723  81.6564 278.6205 14.85665726 23082"
      },
      "geometry": {
        "type": "Point",
        "coordinates": [
          -18.114684636349367,
          -41.88572972754106
        ]
      }
    },
    {
      "type": "Feature",
      "properties": {
        "norad_id": 31113,
        "name": "HAIYANG-1B",
        "group": "resource",
        "lat": -59.03031897104238,
        "lon": -17.078132169032433,
        "alt_km": 798.1498854930041,
        "timestamp": "2025-12-10T09:57:44.360862+00:00",
        "meta_object_name": "HAIYANG-1B",
        "meta_object_id": "2007-010A",
        "meta_epoch": "2025-12-09T20:49:01.643232",
        "meta_mean_motion": 14.30963669,
        "meta_eccentricity": 0.0014375,
        "meta_inclination": 98.3312,
        "meta_ra_of_asc_node": 328.2642,
        "meta_arg_of_pericenter": 45.9495,
        "meta_mean_anomaly": 314.287,
        "meta_ephemeris_type": 0,
        "meta_classification_type": "U",
        "meta_norad_cat_id": 31113,
        "meta_element_set_no": 999,
        "meta_rev_at_epoch": 97355,
        "meta_bstar": 0.00010677,
        "meta_mean_motion_dot": 2.39e-06,
        "meta_mean_motion_ddot": 0,
        "tle_line1": "1 31113U 07010A   25343.86738013  .00000239  00000+0  10677-3 0  9997",
        "tle_line2": "2 31113  98.3312 328.2642 0014375  45.9495 314.2870 14.30963669973551"
      },
      "geometry": {
        "type": "Point",
        "coordinates": [
          -17.078132169032433,
          -59.03031897104238
        ]
      }
    },
    {
      "type": "Feature",
      "properties": {
        "norad_id": 31598,
        "name": "COSMO-SKYMED 1",
        "group": "resource",
        "lat": -9.705098605196875,
        "lon": -11.558835755471593,
        "alt_km": 584.5250128817697,
        "timestamp": "2025-12-10T09:57:44.360872+00:00",
        "meta_object_name": "COSMO-SKYMED 1",
        "meta_object_id": "2007-023A",
        "meta_epoch": "2025-12-09T20:16:21.325728",
        "meta_mean_motion": 14.9573006,
        "meta_eccentricity": 0.0001046,
        "meta_inclination": 97.8835,
        "meta_ra_of_asc_node": 169.2252,
        "meta_arg_of_pericenter": 83.6484,
        "meta_mean_anomaly": 276.4855,
        "meta_ephemeris_type": 0,
        "meta_classification_type": "U",
        "meta_norad_cat_id": 31598,
        "meta_element_set_no": 999,
        "meta_rev_at_epoch": 147,
        "meta_bstar": 0.00055295,
        "meta_mean_motion_dot": 6.103e-05,
        "meta_mean_motion_ddot": 0,
        "tle_line1": "1 31598U 07023A   25343.84469127  .00006103  00000+0  55295-3 0  9994",
        "tle_line2": "2 31598  97.8835 169.2252 0001046  83.6484 276.4855 14.95730060  1473"
      },
      "geometry": {
        "type": "Point",
        "coordinates": [
          -11.558835755471593,
          -9.705098605196875
        ]
      }
    },
    {
      "type": "Feature",
      "properties": {
        "norad_id": 31698,
        "name": "TERRASAR-X",
        "group": "resource",
        "lat": 9.839985331062268,
        "lon": -11.469824230271774,
        "alt_km": 509.7369311229768,
        "timestamp": "2025-12-10T09:57:44.360882+00:00",
        "meta_object_name": "TERRASAR-X",
        "meta_object_id": "2007-026A",
        "meta_epoch": "2025-12-09T11:47:13.204320",
        "meta_mean_motion": 15.19146544,
        "meta_eccentricity": 0.0001961,
        "meta_inclination": 97.4451,
        "meta_ra_of_asc_node": 348.9193,
        "meta_arg_of_pericenter": 86.8081,
        "meta_mean_anomaly": 273.3378,
        "meta_ephemeris_type": 0,
        "meta_classification_type": "U",
        "meta_norad_cat_id": 31698,
        "meta_element_set_no": 999,
        "meta_rev_at_epoch": 2442,
        "meta_bstar": 0.00012751,
        "meta_mean_motion_dot": 2.611e-05,
        "meta_mean_motion_ddot": 0,
        "tle_line1": "1 31698U 07026A   25343.49112505  .00002611  00000+0  12751-3 0  9994",
        "tle_line2": "2 31698  97.4451 348.9193 0001961  86.8081 273.3378 15.19146544 24429"
      },
      "geometry": {
        "type": "Point",
        "coordinates": [
          -11.469824230271774,
          9.839985331062268
        ]
      }
    },
    {
      "type": "Feature",
      "properties": {
        "norad_id": 32060,
        "name": "WORLDVIEW-1 (WV-1)",
        "group": "resource",
        "lat": -34.419447775853214,
        "lon": 107.02662389016496,
        "alt_km": 498.5767446383579,
        "timestamp": "2025-12-10T09:57:44.360893+00:00",
        "meta_object_name": "WORLDVIEW-1 (WV-1)",
        "meta_object_id": "2007-041A",
        "meta_epoch": "2025-12-09T18:21:45.684576",
        "meta_mean_motion": 15.24610182,
        "meta_eccentricity": 7.28e-05,
        "meta_inclination": 97.3837,
        "meta_ra_of_asc_node": 101.2881,
        "meta_arg_of_pericenter": 104.1233,
        "meta_mean_anomaly": 256.0086,
        "meta_ephemeris_type": 0,
        "meta_classification_type": "U",
        "meta_norad_cat_id": 32060,
        "meta_element_set_no": 999,
        "meta_rev_at_epoch": 1402,
        "meta_bstar": 0.0005059,
        "meta_mean_motion_dot": 0.00012417,
        "meta_mean_motion_ddot": 0,
        "tle_line1": "1 32060U 07041A   25343.76511209  .00012417  00000+0  50590-3 0  9997",
        "tle_line2": "2 32060  97.3837 101.2881 0000728 104.1233 256.0086 15.24610182 14026"
      },
      "geometry": {
        "type": "Point",
        "coordinates": [
          107.02662389016496,
          -34.419447775853214
        ]
      }
    },
    {
      "type": "Feature",
      "properties": {
        "norad_id": 32289,
        "name": "YAOGAN-3",
        "group": "resource",
        "lat": 81.99101740286088,
        "lon": -67.14297354106569,
        "alt_km": 590.0789474028579,
        "timestamp": "2025-12-10T09:57:44.360903+00:00",
        "meta_object_name": "YAOGAN-3",
        "meta_object_id": "2007-055A",
        "meta_epoch": "2025-12-09T20:40:19.149600",
        "meta_mean_motion": 14.89832088,
        "meta_eccentricity": 0.0001375,
        "meta_inclination": 97.8367,
        "meta_ra_of_asc_node": 10.5117,
        "meta_arg_of_pericenter": 72.4327,
        "meta_mean_anomaly": 287.7041,
        "meta_ephemeris_type": 0,
        "meta_classification_type": "U",
        "meta_norad_cat_id": 32289,
        "meta_element_set_no": 999,
        "meta_rev_at_epoch": 97766,
        "meta_bstar": 0.00014269,
        "meta_mean_motion_dot": 1.315e-05,
        "meta_mean_motion_ddot": 0,
        "tle_line1": "1 32289U 07055A   25343.86133275  .00001315  00000+0  14269-3 0  9997",
        "tle_line2": "2 32289  97.8367  10.5117 0001375  72.4327 287.7041 14.89832088977667"
      },
      "geometry": {
        "type": "Point",
        "coordinates": [
          -67.14297354106569,
          81.99101740286088
        ]
      }
    }
  ]
}